O3B MPOWER F9           
1 64866U 25153A   26095.61564383 -.00000025  00000+0  00000+0 0  9990
2 64866   0.0512  14.9752 0005188  25.9093 319.1532  5.00116263 15934
O3B MPOWER F10          
1 64867U 25153B   26095.78138816 -.00000025  00000+0  00000+0 0  9997
2 64867   0.0519   9.9571 0003552 256.9952  93.0060  5.00115053 18403
