[{"OBJECT_NAME":"O3B MPOWER F9","OBJECT_ID":"2025-153A","EPOCH":"2026-04-05T14:46:31.626912","MEAN_MOTION":5.00116263,"ECCENTRICITY":0.0005188,"INCLINATION":0.0512,"RA_OF_ASC_NODE":14.9752,"ARG_OF_PERICENTER":25.9093,"MEAN_ANOMALY":319.1532,"EPHEMERIS_TYPE":0,"CLASSIFICATION_TYPE":"U","NORAD_CAT_ID":64866,"ELEMENT_SET_NO":999,"REV_AT_EPOCH":1593,"BSTAR":0,"MEAN_MOTION_DOT":-2.5e-7,"MEAN_MOTION_DDOT":0},{"OBJECT_NAME":"O3B MPOWER F10","OBJECT_ID":"2025-153B","EPOCH":"2026-04-05T18:45:11.937024","MEAN_MOTION":5.00115053,"ECCENTRICITY":0.0003552,"INCLINATION":0.0519,"RA_OF_ASC_NODE":9.9571,"ARG_OF_PERICENTER":256.9952,"MEAN_ANOMALY":93.006,"EPHEMERIS_TYPE":0,"CLASSIFICATION_TYPE":"U","NORAD_CAT_ID":64867,"ELEMENT_SET_NO":999,"REV_AT_EPOCH":1840,"BSTAR":0,"MEAN_MOTION_DOT":-2.5e-7,"MEAN_MOTION_DDOT":0}]
